ONEWEB-0444             
1 51638U 22012S   23296.87560403  .00000586  00000+0  16434-2 0  9993
2 51638  87.8912 228.3694 0002056  70.4372 289.6977 13.10374468 82656
ONEWEB-0445             
1 51639U 22012T   23296.89671223  .00000163  00000+0  43101-3 0  9992
2 51639  87.8909 228.3514 0001756  87.1509 272.9819 13.10370752 82660
ONEWEB-0446             
1 51640U 22012U   23296.87396851  .00000440  00000+0  12234-2 0  9993
2 51640  87.8912 228.3610 0001742  75.9176 284.2145 13.10376614 82642
ONEWEB-0448             
1 51641U 22012V   23296.87884576  .00000617  00000+0  17323-2 0  9990
2 51641  87.8909 228.3616 0002071  70.9268 289.2083 13.10375071 82617
ONEWEB-0449             
1 51642U 22012W   23296.88371423  .00000625  00000+0  17543-2 0  9997
2 51642  87.8912 228.3644 0002057  80.3638 279.7722 13.10375750 82622
ONEWEB-0451             
1 51643U 22012X   23296.78176823  .00000090  00000+0  19773-3 0  9998
2 51643  87.9193 198.1368 0002056  72.9637 287.1720 13.17653154 86266
ONEWEB-0452             
1 51644U 22012Y   23296.77966252  .00000176  00000+0  41984-3 0  9995
2 51644  87.9258 198.1531 0002310  80.6718 279.4675 13.17652337 86276
ONEWEB-0455             
1 51645U 22012Z   23296.94951504  .00000428  00000+0  18315-3 0  9991
2 51645  87.5405 184.5874 0018609  40.8032 319.4548 14.22618539 88573
